[{"OBJECT_NAME":"STARLINK-5049","OBJECT_ID":"2023-094AE","EPOCH":"2026-03-09T22:00:01.999584","MEAN_MOTION":15.06402427,"ECCENTRICITY":0.00021185,"INCLINATION":43.0015,"RA_OF_ASC_NODE":16.0734,"ARG_OF_PERICENTER":260.7363,"MEAN_ANOMALY":122.1904,"EPHEMERIS_TYPE":0,"CLASSIFICATION_TYPE":"U","NORAD_CAT_ID":57246,"ELEMENT_SET_NO":999,"REV_AT_EPOCH":578,"BSTAR":0.0021417871,"MEAN_MOTION_DOT":0.00032025,"MEAN_MOTION_DDOT":0},{"OBJECT_NAME":"CZ-6A DEB","OBJECT_ID":"2024-140WE","EPOCH":"2026-03-09T15:35:26.811168","MEAN_MOTION":14.69407042,"ECCENTRICITY":0.0170896,"INCLINATION":89.1194,"RA_OF_ASC_NODE":289.5546,"ARG_OF_PERICENTER":162.1141,"MEAN_ANOMALY":198.6195,"EPHEMERIS_TYPE":0,"CLASSIFICATION_TYPE":"U","NORAD_CAT_ID":61365,"ELEMENT_SET_NO":999,"REV_AT_EPOCH":8091,"BSTAR":0.00023823,"MEAN_MOTION_DOT":1.788e-5,"MEAN_MOTION_DDOT":0}]
